{"type": "FeatureCollection", "features": [ {"type": "Feature", "properties": {"norad_id": 34274, "name": "COSMOS 2251 DEB", "group": "cosmos-2251-debris", "lat": 15.520763653101755, "lon": -93.70862389946508, "alt_km": 675.4400714871927, "timestamp": "2025-12-01T03:58:49.145067+00:00", "meta": {"OBJECT_NAME": "COSMOS 2251 DEB", "OBJECT_ID": "1993-036LU", "EPOCH": "2025-11-30T17:57:04.683168", "MEAN_MOTION": 14.64525154, "ECCENTRICITY": 0.0022694, "INCLINATION": 74.0034, "RA_OF_ASC_NODE": 91.6653, "ARG_OF_PERICENTER": 241.9199, "MEAN_ANOMALY": 239.8016, "EPHEMERIS_TYPE": 0, "CLASSIFICATION_TYPE": "U", "NORAD_CAT_ID": 34274, "ELEMENT_SET_NO": 999, "REV_AT_EPOCH": 88500, "BSTAR": 0.0013971, "MEAN_MOTION_DOT": 7.413e-05, "MEAN_MOTION_DDOT": 0, "GROUP": "cosmos-2251-debris"}, "tle": {"line1": "1 34274U 93036LU  25334.74797087  .00007413  00000+0  13971-2 0  9994", "line2": "2 34274  74.0034  91.6653 0022694 241.9199 239.8016 14.64525154885005"}}, "geometry": {"type": "Point", "coordinates": [-93.70862389946508, 15.520763653101755]}}, {"type": "Feature", "properties": {"norad_id": 34276, "name": "COSMOS 2251 DEB", "group": "cosmos-2251-debris", "lat": 51.04256312938466, "lon": 128.0761670330158, "alt_km": 712.6501058846779, "timestamp": "2025-12-01T03:58:49.145078+00:00", "meta": {"OBJECT_NAME": "COSMOS 2251 DEB", "OBJECT_ID": "1993-036LW", "EPOCH": "2025-11-30T20:13:31.033056", "MEAN_MOTION": 14.57081825, "ECCENTRICITY": 0.0022782, "INCLINATION": 74.0223, "RA_OF_ASC_NODE": 107.9364, "ARG_OF_PERICENTER": 255.2675, "MEAN_ANOMALY": 264.4279, "EPHEMERIS_TYPE": 0, "CLASSIFICATION_TYPE": "U", "NORAD_CAT_ID": 34276, "ELEMENT_SET_NO": 999, "REV_AT_EPOCH": 88419, "BSTAR": 0.00088658, "MEAN_MOTION_DOT": 3.98e-05, "MEAN_MOTION_DDOT": 0, "GROUP": "cosmos-2251-debris"}, "tle": {"line1": "1 34276U 93036LW  25334.84272029  .00003980  00000+0  88658-3 0  9991", "line2": "2 34276  74.0223 107.9364 0022782 255.2675 264.4279 14.57081825884190"}}, "geometry": {"type": "Point", "coordinates": [128.0761670330158, 51.04256312938466]}}, {"type": "Feature", "properties": {"norad_id": 34297, "name": "COSMOS 2251 DEB", "group": "cosmos-2251-debris", "lat": -20.386693327398746, "lon": 131.58758584061133, "alt_km": 786.509962093869, "timestamp": "2025-12-01T03:58:49.145101+00:00", "meta": {"OBJECT_NAME": "COSMOS 2251 DEB", "OBJECT_ID": "1993-036MT", "EPOCH": "2025-11-30T16:10:14.558304", "MEAN_MOTION": 14.36611147, "ECCENTRICITY": 0.0016759, "INCLINATION": 74.0481, "RA_OF_ASC_NODE": 306.389, "ARG_OF_PERICENTER": 17.9322, "MEAN_ANOMALY": 159.3661, "EPHEMERIS_TYPE": 0, "CLASSIFICATION_TYPE": "U", "NORAD_CAT_ID": 34297, "ELEMENT_SET_NO": 999, "REV_AT_EPOCH": 87891, "BSTAR": 0.00015514, "MEAN_MOTION_DOT": 4.31e-06, "MEAN_MOTION_DDOT": 0, "GROUP": "cosmos-2251-debris"}, "tle": {"line1": "1 34297U 93036MT  25334.67377961  .00000431  00000+0  15514-3 0  9995", "line2": "2 34297  74.0481 306.3890 0016759  17.9322 159.3661 14.36611147878910"}}, "geometry": {"type": "Point", "coordinates": [131.58758584061133, -20.386693327398746]}}, {"type": "Feature", "properties": {"norad_id": 34299, "name": "COSMOS 2251 DEB", "group": "cosmos-2251-debris", "lat": -10.862564253294964, "lon": -176.28003120120863, "alt_km": 410.1958782727852, "timestamp": "2025-12-01T03:58:49.145113+00:00", "meta": {"OBJECT_NAME": "COSMOS 2251 DEB", "OBJECT_ID": "1993-036MV", "EPOCH": "2025-11-30T19:27:10.080576", "MEAN_MOTION": 15.56762743, "ECCENTRICITY": 0.0025172, "INCLINATION": 73.9843, "RA_OF_ASC_NODE": 1.3499, "ARG_OF_PERICENTER": 66.7049, "MEAN_ANOMALY": 293.6812, "EPHEMERIS_TYPE": 0, "CLASSIFICATION_TYPE": "U", "NORAD_CAT_ID": 34299, "ELEMENT_SET_NO": 999, "REV_AT_EPOCH": 88824, "BSTAR": 0.0047011, "MEAN_MOTION_DOT": 0.00356317, "MEAN_MOTION_DDOT": 0, "GROUP": "cosmos-2251-debris"}, "tle": {"line1": "1 34299U 93036MV  25334.81053334  .00356317  00000+0  47011-2 0  9991", "line2": "2 34299  73.9843   1.3499 0025172  66.7049 293.6812 15.56762743888245"}}, "geometry": {"type": "Point", "coordinates": [-176.28003120120863, -10.862564253294964]}}, {"type": "Feature", "properties": {"norad_id": 34301, "name": "COSMOS 2251 DEB", "group": "cosmos-2251-debris", "lat": -28.412690133287736, "lon": -179.23753197241803, "alt_km": 621.9357988927195, "timestamp": "2025-12-01T03:58:49.145123+00:00", "meta": {"OBJECT_NAME": "COSMOS 2251 DEB", "OBJECT_ID": "1993-036MX", "EPOCH": "2025-11-30T01:16:46.013376", "MEAN_MOTION": 14.83641161, "ECCENTRICITY": 0.00126363, "INCLINATION": 74.007, "RA_OF_ASC_NODE": 191.8954, "ARG_OF_PERICENTER": 251.0127, "MEAN_ANOMALY": 259.4821, "EPHEMERIS_TYPE": 0, "CLASSIFICATION_TYPE": "U", "NORAD_CAT_ID": 34301, "ELEMENT_SET_NO": 999, "REV_AT_EPOCH": 88212, "BSTAR": 0.0030861767, "MEAN_MOTION_DOT": 0.00025573, "MEAN_MOTION_DDOT": 0, "GROUP": "cosmos-2251-debris"}, "tle": {"line1": "1 34301U 93036MX  25334.05331034  .00025573  00000+0  30862-2 0  9990", "line2": "2 34301  74.0070 191.8954 0012636 251.0127 259.4821 14.83641161882121"}}, "geometry": {"type": "Point", "coordinates": [-179.23753197241803, -28.412690133287736]}}, {"type": "Feature", "properties": {"norad_id": 34302, "name": "COSMOS 2251 DEB", "group": "cosmos-2251-debris", "lat": 51.43340876930984, "lon": -56.076607637480414, "alt_km": 785.2208031316477, "timestamp": "2025-12-01T03:58:49.145134+00:00", "meta": {"OBJECT_NAME": "COSMOS 2251 DEB", "OBJECT_ID": "1993-036MY", "EPOCH": "2025-11-30T16:18:25.509024", "MEAN_MOTION": 14.39257038, "ECCENTRICITY": 0.0078056, "INCLINATION": 74.1772, "RA_OF_ASC_NODE": 145.6473, "ARG_OF_PERICENTER": 4.4083, "MEAN_ANOMALY": 121.3167, "EPHEMERIS_TYPE": 0, "CLASSIFICATION_TYPE": "U", "NORAD_CAT_ID": 34302, "ELEMENT_SET_NO": 999, "REV_AT_EPOCH": 87547, "BSTAR": 0.00064061, "MEAN_MOTION_DOT": 2.034e-05, "MEAN_MOTION_DDOT": 0, "GROUP": "cosmos-2251-debris"}, "tle": {"line1": "1 34302U 93036MY  25334.67946191  .00002034  00000+0  64061-3 0  9991", "line2": "2 34302  74.1772 145.6473 0078056   4.4083 121.3167 14.39257038875471"}}, "geometry": {"type": "Point", "coordinates": [-56.076607637480414, 51.43340876930984]}}, {"type": "Feature", "properties": {"norad_id": 34303, "name": "COSMOS 2251 DEB", "group": "cosmos-2251-debris", "lat": 37.673462998333214, "lon": -37.22677854919018, "alt_km": 648.8253742760362, "timestamp": "2025-12-01T03:58:49.145144+00:00", "meta": {"OBJECT_NAME": "COSMOS 2251 DEB", "OBJECT_ID": "1993-036MZ", "EPOCH": "2025-11-30T10:22:40.788192", "MEAN_MOTION": 14.54215454, "ECCENTRICITY": 0.01348991, "INCLINATION": 74.0052, "RA_OF_ASC_NODE": 311.3664, "ARG_OF_PERICENTER": 92.914, "MEAN_ANOMALY": 69.779, "EPHEMERIS_TYPE": 0, "CLASSIFICATION_TYPE": "U", "NORAD_CAT_ID": 34303, "ELEMENT_SET_NO": 999, "REV_AT_EPOCH": 87783, "BSTAR": 0.0010924199, "MEAN_MOTION_DOT": 5.197e-05, "MEAN_MOTION_DDOT": 0, "GROUP": "cosmos-2251-debris"}, "tle": {"line1": "1 34303U 93036MZ  25334.43241653  .00005197  00000+0  10924-2 0  9998", "line2": "2 34303  74.0052 311.3664 0134899  92.9140  69.7790 14.54215454877832"}}, "geometry": {"type": "Point", "coordinates": [-37.22677854919018, 37.673462998333214]}}, {"type": "Feature", "properties": {"norad_id": 34304, "name": "COSMOS 2251 DEB", "group": "cosmos-2251-debris", "lat": 55.36119238535297, "lon": -60.5785767321029, "alt_km": 848.4452200848909, "timestamp": "2025-12-01T03:58:49.145155+00:00", "meta": {"OBJECT_NAME": "COSMOS 2251 DEB", "OBJECT_ID": "1993-036NA", "EPOCH": "2025-11-30T19:20:51.202752", "MEAN_MOTION": 14.37689789, "ECCENTRICITY": 0.0128834, "INCLINATION": 74.012, "RA_OF_ASC_NODE": 144.6038, "ARG_OF_PERICENTER": 284.8553, "MEAN_ANOMALY": 135.7283, "EPHEMERIS_TYPE": 0, "CLASSIFICATION_TYPE": "U", "NORAD_CAT_ID": 34304, "ELEMENT_SET_NO": 999, "REV_AT_EPOCH": 87125, "BSTAR": 0.0012273, "MEAN_MOTION_DOT": 4.034e-05, "MEAN_MOTION_DDOT": 0, "GROUP": "cosmos-2251-debris"}, "tle": {"line1": "1 34304U 93036NA  25334.80614818  .00004034  00000+0  12273-2 0  9995", "line2": "2 34304  74.0120 144.6038 0128834 284.8553 135.7283 14.37689789871251"}}, "geometry": {"type": "Point", "coordinates": [-60.5785767321029, 55.36119238535297]}}, {"type": "Feature", "properties": {"norad_id": 34307, "name": "COSMOS 2251 DEB", "group": "cosmos-2251-debris", "lat": -23.088036174270037, "lon": 158.68914172594543, "alt_km": 829.685947740767, "timestamp": "2025-12-01T03:58:49.145165+00:00", "meta": {"OBJECT_NAME": "COSMOS 2251 DEB", "OBJECT_ID": "1993-036ND", "EPOCH": "2025-11-30T16:56:57.153984", "MEAN_MOTION": 13.54296236, "ECCENTRICITY": 0.0392489, "INCLINATION": 74.0532, "RA_OF_ASC_NODE": 332.4257, "ARG_OF_PERICENTER": 165.9963, "MEAN_ANOMALY": 315.141, "EPHEMERIS_TYPE": 0, "CLASSIFICATION_TYPE": "U", "NORAD_CAT_ID": 34307, "ELEMENT_SET_NO": 999, "REV_AT_EPOCH": 82699, "BSTAR": 0.00061181, "MEAN_MOTION_DOT": 6.61e-06, "MEAN_MOTION_DDOT": 0, "GROUP": "cosmos-2251-debris"}, "tle": {"line1": "1 34307U 93036ND  25334.70621706  .00000661  00000+0  61181-3 0  9996", "line2": "2 34307  74.0532 332.4257 0392489 165.9963 315.1410 13.54296236826990"}}, "geometry": {"type": "Point", "coordinates": [158.68914172594543, -23.088036174270037]}}]}